STARLINK-3710           
1 52130U 22029AU  22095.16667824  .00247982  34415-4  70271-3 0  9997
2 52130  53.2160  58.6098 0007576 340.4711   2.0382 15.92927010  3948
STARLINK-3711           
1 52131U 22029AV  22094.91667824  .00080759  00000+0  57384-3 0  9995
2 52131  53.2179  61.2961 0000896  88.6079 289.8120 15.73219400  3383
STARLINK-3718           
1 52132U 22029AW  22095.16667824 -.00092719  00000+0 -66007-3 0  9997
2 52132  53.2181  60.0639 0000868  81.5939 272.3701 15.73322155  3926
STARLINK-3707           
1 52133U 22029AX  22095.16667824 -.00084032  00000+0 -59806-3 0  9996
2 52133  53.2179  60.0582 0000978  82.2500 274.0536 15.73288180  3929
STARLINK-3721           
1 52134U 22029AY  22095.16667824 -.00089973  00000+0 -64045-3 0  9997
2 52134  53.2181  60.0603 0001162  82.9934 272.7065 15.73311534  3923
STARLINK-3729           
1 52135U 22029AZ  22094.91667824  .00064065  00000+0  45632-3 0  9994
2 52135  53.2179  61.2900 0001187  90.0912 291.1119 15.73256004  3427
STARLINK-3720           
1 52136U 22029BA  22094.91667824  .00060216  00000+0  42985-3 0  9997
2 52136  53.2181  61.2931 0001030  85.3099 294.8084 15.73229503  3385
STARLINK-3733           
1 52137U 22029BB  22094.91667824  .00066087  00000+0  47068-3 0  9997
2 52137  53.2179  61.2888 0000892  81.5023 300.2528 15.73245570  3426
STARLINK-3723           
1 52138U 22029BC  22095.16667824 -.00092780  00000+0 -66101-3 0  9996
2 52138  53.2181  60.0566 0001250  84.3579 273.0556 15.73303512  3920
STARLINK-3730           
1 52139U 22029BD  22095.16667824 -.00063654  00000+0 -45104-3 0  9995
2 52139  53.2167  59.6814 0001108  87.2670  92.6891 15.73278426  3934
STARLINK-3682           
1 52140U 22029BE  22094.91667824  .00027585  00000+0  20027-3 0  9997
2 52140  53.2181  61.2867 0001226  91.9343 291.1430 15.73205046  3426
FALCON 9 DEB            
1 52141U 22029BF  22095.16907205  .00334326  54636-4  88248-3 0  9998
2 52141  53.2141  58.5723 0008337 320.6294  39.4128 15.94192119  2717
FALCON 9 DEB            
1 52142U 22029BG  22095.16607793  .00299115  45812-4  78798-3 0  9999
2 52142  53.2139  58.5531 0008735 341.9971  18.0748 15.94243222  2715
FALCON 9 DEB            
1 52143U 22029BH  22094.71517317  .00354455  61044-4  87428-3 0  9996
2 52143  53.2134  60.7167 0004464 329.2090  30.8678 15.95490729  2640
FALCON 9 DEB            
1 52144U 22029BJ  22095.14844073  .00383261  70764-4  88256-3 0  9993
2 52144  53.2159  58.4447 0004039 354.1008   5.9974 15.96742063  2719
MERIDIAN 10             
1 52145U 22030A   22092.09616065  .00000933  00000+0  52658-1 0  9993
2 52145  62.7877 320.6993 7235881 269.8290 320.0214  1.98359010   208
FREGAT R/B              
1 52146U 22030B   22092.57946410 -.00001476  00000+0  93336-3 0  9991
2 52146  62.8080 320.5290 7293828 269.6255  14.6283  2.00118978   256
IHI-SAT                 
1 52147U 98067TJ  22095.12096892  .00038275  00000+0  64753-3 0  9996
2 52147  51.6425 338.3977 0003412  35.7811 324.3406 15.51186781  1915
KITSUNE                 
1 52148U 98067TK  22095.14778656  .00030556  00000+0  52887-3 0  9993
2 52148  51.6456 338.2947 0002612  19.2617 113.6845 15.50657631  1853
2022-031A               
1 52150U 22031A   22095.23577184  .00001624  00000+0  17182-3 0  9990
2 52150  97.7954 268.5853 0012611 237.9528 122.0465 14.90501845  1019
2022-031B               
1 52151U 22031B   22095.23501035  .00000757  00000+0  82836-4 0  9998
2 52151  97.7844 268.5777 0011472 243.4175 116.5867 14.90668199  1017
CZ-6A R/B               
1 52152U 22031C   22094.73641401  .00001579  00000+0  13972-3 0  9992
2 52152  97.7825 268.1270 0028167 347.1506  12.8995 14.97474238   947
2022-032A               
1 52153U 22032A   22095.12134391  .00001812  00000+0  19318-3 0  9993
2 52153  97.7962 145.2144 0011014 238.8221 121.1970 14.90068332   896
CZ-11 R/B               
1 52154U 22032B   22095.24200789  .04514892  27382-5  17234-3 0  9996
2 52154  97.6132 146.0149 0220893 297.6391  60.7173 15.99661550   969
2022-032C               
1 52155U 22032C   22095.18396933  .00001918  00000+0  19552-3 0  9990
2 52155  97.8021 145.2893 0014873 269.5080  90.4418 14.91784296   908
2022-032D               
1 52156U 22032D   22095.18389504  .00004366  00000+0  43735-3 0  9997
2 52156  97.7898 145.2813 0014904 270.0750  89.8762 14.91817869   916
2022-034A               
1 52195U 22034A   22094.94988394  .00149230  00000+0  31228-2 0  9990
2 52195  53.0036 331.2007 0009614 311.9906  48.0282 15.44401639   377
2022-034B               
1 52196U 22034B   22094.94997100  .00020212  00000+0  44329-3 0  9991
2 52196  53.0054 331.2046 0008708 301.0575  58.9576 15.44045345   370
2022-034C               
1 52197U 22034C   22094.94914281  .00020675  00000+0  44493-3 0  9996
2 52197  53.0047 331.1987 0010097 288.8156  71.1767 15.44579248   370
ELECTRON STAGE 2 R/B    
1 52198U 22034D   22095.11488223  .07396050  12035-4  15259-2 0  9992
2 52198  52.9946 329.3170 0107567  62.5421 298.9848 16.16294099   413
ELECTRON KICK STAGE R/B 
1 52199U 22034E   22095.19940601  .01644165  10936-4  97782-3 0  9991
2 52199  53.0310 329.3781 0179223 253.7605 104.3644 15.91523011   410
